SL-16 R/B               
1 28353U 04021B   25245.78352986 -.00000045  00000+0  13521-5 0  9990
2 28353  70.9993 266.8201 0007068 308.0730  51.9754 14.14563189 96263
CZ-4B R/B               
1 28415U 04035C   25245.66007204  .00013592  00000+0  53501-3 0  9991
2 28415  97.3756 277.4229 0033111 273.8536  85.8916 15.25230413151218
CZ-2C R/B               
1 28480U 04046B   25245.77255291  .00000576  00000+0  22971-3 0  9993
2 28480  98.1907 167.4741 0139572 351.1368   8.7352 14.26869934 81705
ARIANE 5 R/B            
1 28499U 04049H   25245.70539496  .00002160  00000+0  24701-3 0  9995
2 28499  98.2443  42.4416 0084048 239.8526 119.4340 14.84657043117894
CZ-2D R/B               
1 28738U 05024B   25245.93375743  .00040552  00000+0  81169-3 0  9991
2 28738  97.3698 251.1865 0005573  22.5856 337.5638 15.46636966110647
ALOS (DAICHI)           
1 28931U 06002A   25245.83372124  .00003782  00000+0  65383-3 0  9996
2 28931  98.0898 198.1717 0001893 110.9356 249.2052 14.68969487 45899
H-2A R/B                
1 28932U 06002B   25245.94666694  .00019241  00000+0  10773-2 0  9996
2 28932  98.2201  12.7545 0057747 157.9786 202.3943 15.12041071 66024
RESURS-DK 1             
1 29228U 06021A   25245.72605930  .00006324  00000+0  38014-3 0  9995
2 29228  69.9362   2.7179 0003194   4.0702 356.0489 15.11346691 59114
CZ-4B R/B               
1 29507U 06046C   25245.85627881  .00009730  00000+0  52479-3 0  9990
2 29507  97.5900 286.2715 0034851 194.7290 165.2930 15.14446719 31595
CZ-2C R/B               
1 31114U 07010B   25245.89967819  .00000330  00000+0  17036-3 0  9998
2 31114  98.3875   3.6845 0060089 119.8057 240.9114 14.20155122953069
COSMO-SKYMED 1          
1 31598U 07023A   25245.93965690  .00007164  00000+0  66392-3 0  9999
2 31598  97.8902  70.7329 0001587  88.2119 271.9283 14.94782242986830
COSMOS 2428             
1 31792U 07029A   25245.92261125  .00000038  00000+0  46019-4 0  9990
2 31792  70.9416 237.5077 0004295 216.5677 143.5151 14.12904284937572
SL-16 R/B               
1 31793U 07029B   25245.92160846  .00000023  00000+0  36957-4 0  9993
2 31793  70.9755 207.0716 0002896 274.0695 148.0156 14.14794609938818
KORONAS-FOTON           
1 33504U 09003A   25245.87878366  .00014836  00000+0  39464-3 0  9998
2 33504  82.4312 110.3409 0013293 107.7528 252.5169 15.38002394916824
CZ-2C R/B               
1 37731U 11030B   25245.90113299  .00002707  00000+0  35316-3 0  9994
2 37731  97.8214 202.3835 0051914 240.6409 185.1933 14.80423744762307
H-2A R/B                
1 38341U 12025E   25245.90338591  .00004890  00000+0  46224-3 0  9996
2 38341  98.4406 193.5514 0045354 204.9764 154.9260 14.93444364720179
SHIJIAN-16 (SJ-16)      
1 39358U 13057A   25245.93592679  .00003979  00000+0  39887-3 0  9997
2 39358  74.9732 180.3063 0017620 211.8775 148.1348 14.91507905643508
SL-4 R/B                
1 39679U 14021B   25245.94827265  .00019351  00000+0  50169-3 0  9995
2 39679  51.6067 169.0016 0110466 141.1212 219.7780 15.32979409627417
ALOS-2                  
1 39766U 14029A   25245.90242522  .00004325  00000+0  58531-3 0  9999
2 39766  97.9222 342.1907 0001523  99.6822 260.4561 14.79496153609106
YAOGAN-29               
1 41038U 15069A   25246.00285725  .00000969  00000+0  12676-3 0  9993
2 41038  98.0330 268.7843 0000853 166.8537 193.2698 14.82719454528065
ASTRO-H (HITOMI)        
1 41337U 16012A   25245.94107051  .00005279  00000+0  32460-3 0  9993
2 41337  30.9993 126.7246 0010166 248.0651 111.8906 15.08450977523845
HXMT (HUIYAN)           
1 42758U 17034A   25245.94601566  .00012601  00000+0  67270-3 0  9990
2 42758  43.0159 338.2461 0032765 131.3908 228.9764 15.14610866454048
CZ-2C R/B               
1 43521U 18054D   25245.91251319  .00070100  00000+0  89757-3 0  9998
2 43521  35.1371 134.9293 0032656 267.6147  92.0842 15.57352494399251
SAOCOM 1A               
1 43641U 18076A   25245.94614157  .00001006  00000+0  13294-3 0  9993
2 43641  97.8900  71.8094 0001446  89.1044 271.0335 14.82162265373554
H-2A R/B                
1 43682U 18084L   25245.90706470  .00027242  00000+0  85322-3 0  9994
2 43682  98.8830  59.4963 0030343 311.5917  48.2720 15.32628079376931
SAOCOM 1B               
1 46265U 20059A   25245.97738469  .00000986  00000+0  13039-3 0  9991
2 46265  97.8906  70.9468 0001391  89.6749 270.4623 14.82168795270942
CSS (TIANHE)            
1 48274U 21035A   25245.75454481  .00037370  00000+0  46998-3 0  9990
2 48274  41.4646 270.5376 0006324 277.7276  82.2844 15.58907848248259
COSMOS 2550             
1 48865U 21056A   25245.52390028  .00012257  00000+0  37749-3 0  9991
2 48865  67.1414 250.1575 0008434 269.1388  90.8800 15.33852212234609
CZ-2C R/B               
1 52794U 22058K   25245.85708050  .00030889  00000+0  67447-3 0  9993
2 52794  50.1913 195.4409 0054360 136.5711 223.9556 15.42311778181036
GSLV R/B                
1 54149U 22138AN  25245.96390708  .00007082  00000+0  63837-3 0  9995
2 54149  87.3774 229.1983 0024924 111.0276 249.3624 14.95189941155860
XRISM                   
1 57800U 23137A   25245.73317780  .00011313  00000+0  69581-3 0  9990
2 57800  31.0023  56.8935 0008283 312.8313  47.1628 15.08781182109356
ACS3                    
1 59588U 24077B   25245.94902728  .00031288  00000+0  29548-1 0  9994
2 59588  97.4025 223.6008 0054258   4.5968 355.5678 13.80339093 68216
